#aV2022  3 27  0  0  0.00000000     288 DD+AD WGS84 FIT  NGA
## 2203      0.00000000   300.00000000 59665 0.0000000000000
+   32     1  2  3  4  5  6  7  8  9 10 11 12 13 14 15 16 17
+         18 19 20 21 22 23 24 25 26 27 28 29 30 31 32  0  0
+          0  0  0  0  0  0  0  0  0  0  0  0  0  0  0  0  0
+          0  0  0  0  0  0  0  0  0  0  0  0  0  0  0  0  0
+          0  0  0  0  0  0  0  0  0  0  0  0  0  0  0  0  0
++         2  2  2  2  2  2  2  2  2  2  2  2  2  2  2  2  2
++         2  2  2  2  2  2  2  2  2  2  2  2  2  2  2  0  0
++         0  0  0  0  0  0  0  0  0  0  0  0  0  0  0  0  0
++         0  0  0  0  0  0  0  0  0  0  0  0  0  0  0  0  0
++         0  0  0  0  0  0  0  0  0  0  0  0  0  0  0  0  0
%c cc cc ccc ccc cccc cccc cccc cccc ccccc ccccc ccccc ccccc
%c cc cc ccc ccc cccc cccc cccc cccc ccccc ccccc ccccc ccccc
%f  0.0000000  0.000000000  0.00000000000  0.000000000000000
%f  0.0000000  0.000000000  0.00000000000  0.000000000000000
%i    0    0    0    0      0      0      0      0         0
%i    0    0    0    0      0      0      0      0         0
/*      NGA, ST. LOUIS,MO.                                  
/*   EPHEMERIS COMPUTED FROM 2 DAYS OF DATA                 
/*   EPOCHA v7 SMOOTHER                                     
/*   G2139 IERS2010 SATIGS SATAPC                           
*  2022  3 27 13 20  0.00000000
P  1 -15659.747775 -13389.599147 -17246.071441    398.985867                    
V  1  21105.173845   1622.930100 -20429.662139     -0.089687                    
P  2  -7566.060156  14644.597415  21512.253543   -652.685661                    
V  2 -25727.487420  -1356.241731  -8248.167729     -0.003466                    
P  3 -13106.257948 -22774.136295   4166.790884   -181.721483                    
V  3    -49.402781  -5872.462067 -31362.269481     -0.161842                    
P  4  -6697.556874 -15011.277138  20853.221761   -180.605426                    
V  4  17058.263304 -20268.191588  -9197.006993      0.028382                    
P  5   3461.590581  23959.936457  10589.080419    -76.159026                    
V  5  -8416.096232 -11178.780298  27771.935203     -0.013470                    
P  6 -22219.255344   6283.813495  13263.825944    245.615094                    
V  6 -16376.098035  -3403.018341 -25872.519109      0.131271                    
P  7 -25860.277373  -6025.059822   4229.733464    317.989964                    
V  7   5092.003858  -2035.084113  30623.701734      0.016338                    
P  8   1623.588338 -21227.768106 -15686.296496    -61.514131                    
V  8  13212.759142 -15150.527713  22262.086525     -0.014803                    
P  9 -15313.563541  -4344.327816  21199.035528   -347.406475                    
V  9  15131.449450 -22479.710436   6272.854782      0.022144                    
P 10  15276.735343  -1762.440873 -21542.056814   -359.822440                    
V 10  10905.877975  25384.599470   5335.570722     -0.119416                    
P 11  -8666.172154  13498.596332  21164.135277    -52.437373                    
V 11 -26404.075758  -5069.489914  -7589.192210      0.085075                    
P 12   9457.268225  24870.171773    805.480965   -191.225030                    
V 12  -1850.371875   2083.832539 -31843.180022     -0.057724                    
P 13 -10902.486218  21759.311742 -10585.266930    283.890464                    
V 13 -10888.816912   7920.685768  28056.914753      0.064138                    
P 14 -15961.466949    644.070361 -21234.822781    -97.692155                    
V 14  -9338.072336 -25305.419985   6176.928388     -0.033215                    
P 15   1877.683542  21240.975879 -16046.581188    -73.578369                    
V 15 -11913.255504  16094.914368  20751.788219      0.029296                    
P 16   2463.943761 -22212.668862  13712.024322   -485.335594                    
V 16   7992.531128  16344.264183  25008.170188     -0.041506                    
P 17 -20310.927182  11069.373578 -12670.932910    592.674787                    
V 17   9260.573719 -14069.630325 -26200.413951      0.048984                    
P 18  25640.314906   6000.257289   3868.240578    210.069395                    
V 18  -5162.263246   1715.090773  31415.154032     -0.090293                    
P 19 -20405.664778  15495.947062  -6862.528214    136.505258                    
V 19   3994.440919  -7724.750341 -30665.957504      0.049932                    
P 20  -2882.823402  19559.687646  17844.282273    516.115320                    
V 20 -13697.869432 -18100.624006  17392.051876     -0.001846                    
P 21  -5415.237158 -14761.293915 -20839.566462    159.858902                    
V 21  27910.765823    430.451398  -6687.587316      0.004060                    
P 22  18858.161869 -18190.933823  -3278.707320    233.972390                    
V 22   -840.690175   5479.090604 -31530.443316      0.059083                    
P 23  17753.548103   9835.731707 -17193.569823    -10.255113                    
V 23   7900.059875  20333.191194  19703.531081     -0.030668                    
P 24  11980.027993  14541.074370 -19167.363849    263.840475                    
V 24 -23708.334084    634.001458 -14152.043228     -0.041411                    
P 25  16736.524890  16777.155556  11984.331446    303.976655                    
V 25   4222.032549  15170.212315 -26224.773153      0.051217                    
P 26   9977.597298 -13498.314201  20434.628430    194.068802                    
V 26  12910.133978  22938.688819   9119.803733      0.029481                    
P 27  11399.858449 -22931.495494  -6407.125331    166.999845                    
V 27   6810.548660  -4862.437181  30879.909444      0.111515                    
P 28 -11903.073114  10036.204465 -21036.790601    374.843002                    
V 28  -9280.171153 -26280.021527  -6893.422870     -0.006967                    
P 29  13474.859582   6707.094895  21839.904823   -496.236477                    
V 29 -17863.491552  21277.670852   4420.131836     -0.044542                    
P 30 -26280.567219     52.817361  -4613.090814   -520.870344                    
V 30  -5458.354096  -4031.947773  30313.281532     -0.019231                    
P 31  20941.620469  -7645.885506  14653.944152   -170.786555                    
V 31  18235.398728   4398.424519 -23100.341317     -0.016783                    
P 32  19541.879683 -14150.237395 -10746.351354    -93.066884                    
V 32  -5967.781446  12868.146883 -27627.108268     -0.076420                    
EOF
